BEIDOU-3 M16 (C35)      
1 43648U 18078B   23005.85445762 -.00000105  00000+0  00000+0 0  9995
2 43648  55.0364 343.6517 0004350 356.5418 214.6541  1.86232109 28749
BEIDOU-3 G1 (C59)       
1 43683U 18085A   23005.77270998 -.00000268  00000+0  00000+0 0  9990
2 43683   1.0499 146.9676 0004228 187.0968 189.1222  1.00265947 15435
BEIDOU-3 M17 (C36)      
1 43706U 18093A   23005.15254083  .00000087  00000+0  00000+0 0  9992
2 43706  54.3058 225.0842 0007074 290.4158  69.5934  1.86232113 28099
BEIDOU-3 M18 (C37)      
1 43707U 18093B   23005.81827155  .00000083  00000+0  00000+0 0  9998
2 43707  54.3058 225.0529 0007135 324.1573 213.6162  1.86232295 28092
BEIDOU-3 IGSO-1 (C38)   
1 44204U 19023A   23003.04199979 -.00000225  00000+0  00000+0 0  9993
2 44204  56.8486  50.8392 0023816 197.3439 344.8368  1.00249341 13718
BEIDOU-2 G8             
1 44231U 19027A   23006.22340970 -.00000235  00000+0  00000+0 0  9990
2 44231   1.3568  80.5888 0006213 139.7350 110.1855  1.00273658 13452
BEIDOU-3 IGSO-2 (C39)   
1 44337U 19035A   23005.43304440 -.00000080  00000+0  00000+0 0  9998
2 44337  55.1202 169.9328 0029547 192.3397  15.1349  1.00296047 13070
BEIDOU-3 M23 (C45)      
1 44542U 19061A   23005.08912129  .00000088  00000+0  00000+0 0  9992
2 44542  54.5325 225.2684 0008818   1.3191 358.7689  1.86231541 22342
BEIDOU-3 M24 (C46)      
1 44543U 19061B   23004.94839536  .00000089  00000+0  00000+0 0  9998
2 44543  54.5300 225.2433 0005885 355.2863 182.0077  1.86231868 22336
BEIDOU-3 IGSO-3         
1 44709U 19073A   23005.34406189 -.00000194  00000+0  10000-3 0  9997
2 44709  56.9384 294.2842 0025662 181.8320 227.9598  1.00247626 11828
BEIDOU-3 M21            
1 44793U 19078A   23006.00785539 -.00000104  00000+0  10000-3 0  9999
2 44793  54.8898 343.6379 0006419   0.7543 359.4665  1.86231998 21227
BEIDOU-3 M22            
1 44794U 19078B   23005.33775221 -.00000106  00000+0  00000+0 0  9999
2 44794  54.8635 343.6479 0004525 348.9615 194.0048  1.86232501 21208
BEIDOU-3 M19            
1 44864U 19090A   23005.76692148 -.00000054  00000+0  00000+0 0  9996
2 44864  55.5397 104.7623 0016749 267.7740  37.1792  1.86231710 20791
BEIDOU-3 M20            
1 44865U 19090B   23005.17724860 -.00000060  00000+0  00000+0 0  9996
2 44865  55.5419 104.8143 0014102 281.6703  77.7743  1.86231690 20759
BEIDOU-3 G2             
1 45344U 20017A   23005.76085553 -.00000130  00000+0  00000+0 0  9992
2 45344   1.9900   2.9188 0001369 248.3811 207.7213  1.00272902 10641
BEIDOU-3 G3             
1 45807U 20040A   23005.76686992 -.00000339  00000+0  00000+0 0  9997
2 45807   1.0011 312.3302 0008943 341.7592 197.5722  1.00267302  9461
CUTE-1 (CO-55)          
1 27844U 03031E   23005.29707139  .00000375  00000+0  18724-3 0  9999
2 27844  98.6791  14.9520 0008986 234.0543 125.9802 14.22575972 12576
CUBESAT XI-IV (CO-57)   
1 27848U 03031J   23006.30893742  .00000337  00000+0  17195-3 0  9991
2 27848  98.6831  16.4191 0008759 246.9784 113.0470 14.22116439 12548
CUBESAT XI-V            
1 28895U 05043F   23005.81996365  .00001577  00000+0  30422-3 0  9994
2 28895  98.1307 139.4647 0015706 221.0559 138.9463 14.64791707917039
CUTE-1.7+APD II (CO-65) 
1 32785U 08021C   23005.84041047  .00003535  00000+0  36705-3 0  9993
2 32785  97.6847 335.6910 0011002 285.0197  74.9803 14.90516348796690
AAUSAT-II               
1 32788U 08021F   23004.91543338  .00007931  00000+0  64786-3 0  9997
2 32788  97.5566 348.5849 0010278 151.6124 208.5662 14.99613254798701
DELFI-C3 (DO-64)        
1 32789U 08021G   23005.80834659  .00025966  00000+0  12052-2 0  9992
2 32789  97.3224  30.3446 0008548 350.3800   9.7271 15.19974398802699
SEEDS II (CO-66)        
1 32791U 08021J   23005.67942357  .00005826  00000+0  55040-3 0  9993
2 32791  97.6367 340.8370 0010973 230.6914 129.3334 14.94037873797455
SWISSCUBE               
1 35932U 09051B   23005.69158978  .00001086  00000+0  25132-3 0  9990
2 35932  98.5422 232.0281 0008042 139.4011 220.7788 14.57175687705541
BEESAT-1                
1 35933U 09051C   23005.85268774  .00000945  00000+0  22029-3 0  9990
2 35933  98.5356 233.6704 0006102 148.2363 211.9203 14.57153833705642
ITUPSAT1                
1 35935U 09051E   23005.85770719  .00000877  00000+0  20911-3 0  9991
2 35935  98.5457 233.6752 0008311 154.9701 205.1901 14.56241755705362
TISAT 1                 
1 36799U 10035E   23005.60003543  .00004431  00000+0  41997-3 0  9998
2 36799  98.1571 228.8911 0011893 145.6173 214.5818 14.94080584677931
M-CUBED & EXP-1 PRIME   
1 37855U 11061F   23006.20229942  .00018621  00000+0  72889-3 0  9992
2 37855 101.7123 238.6881 0140263 172.8417 187.4848 15.17232501612395
AEROCUBE 4.5A           
1 38767U 12048K   23005.24068284  .00008834  00000+0  61027-3 0  9991
2 38767  64.6631 196.3307 0155478 206.4409 152.8715 14.96951418180964
AEROCUBE 4.5B           
1 38768U 12048L   23005.36407751  .00016377  00000+0  10003-2 0  9999
2 38768  64.6646 145.4729 0138048 201.6557 157.8689 15.02752483181458
STRAND-1                
1 39090U 13009E   23005.80715580  .00000366  00000+0  14210-3 0  9993
2 39090  98.3911 203.5739 0009639  34.4575 325.7235 14.35402665516441
BRITE-AUSTRIA           
1 39091U 13009F   23005.79621455  .00000212  00000+0  88669-4 0  9999
2 39091  98.3932 202.7650 0011194  40.2392 319.9621 14.35351947516450
SOMP                    
1 39134U 13015E   23006.28336205  .00043499  00000+0  11891-2 0  9990
2 39134  64.8590 112.8575 0027143 254.7392 105.0742 15.36765393538308
BEESAT-3                
1 39135U 13015F   23005.67781178  .00024172  00000+0  83111-3 0  9998
2 39135  64.8624 156.7040 0033288 253.3751 106.3725 15.29531606537407
BEESAT-2                
1 39136U 13015G   23005.81464985  .00020831  00000+0  75620-3 0  9993
2 39136  64.8710 165.8167 0025826 287.3889  72.4418 15.28037287537253
NEE-01 PEGASO           
1 39151U 13018B   23004.28148956  .00002159  00000+0  28136-3 0  9993
2 39151  98.0007 114.4575 0015806 328.1940  31.8317 14.81562013523407
ESTCUBE 1               
1 39161U 13021C   23005.42489190  .00001670  00000+0  26480-3 0  9990
2 39161  97.8914  82.2702 0010193 129.2388 230.9730 14.73428565519204
POPACS 1                
1 39268U 13055D   23005.45669807  .00023764  00000+0  57602-3 0  9991
2 39268  80.9946  21.0651 0540146 307.3361  47.9762 14.58052221482654
POPACS 2                
1 39269U 13055E   23005.54272463  .00013071  00000+0  34495-3 0  9995
2 39269  81.0111  84.3468 0629297 111.4040 255.5464 14.37505720479164
POPACS 3                
1 39270U 13055F   23006.30213740  .00014700  00000+0  44101-3 0  9990
2 39270  81.0152 120.2653 0678415 212.8361 142.8912 14.24453310478185
ZACUBE-1 (TSHEPISOSAT)  
1 39417U 13066B   23005.82131181  .00002949  00000+0  35644-3 0  9993
2 39417  97.6642 333.5904 0058250 100.5897 260.1886 14.83240313493115
WNISAT-1                
1 39423U 13066H   23006.08501855  .00001095  00000+0  22405-3 0  9990
2 39423  97.7236 237.3220 0172678 224.2602 134.4717 14.53754070483889
TRITON-1                
1 39427U 13066M   23006.21246848  .00004075  00000+0  63146-3 0  9995
2 39427  97.8295 298.4005 0110061 337.1525  22.4804 14.69687385488748
DELFI-N3XT              
1 39428U 13066N   23005.59965655  .00006108  00000+0  91926-3 0  9996
2 39428  97.8289 296.5131 0115085 351.8705   8.0633 14.70357738488226
GOMX-1                  
1 39430U 13066Q   23006.11716455  .00001508  00000+0  27260-3 0  9999
2 39430  97.7970 266.6367 0148955 125.2490 236.2771 14.60788158485879
CUBEBUG-2 (LO-74)       
1 39440U 13066AA  23005.62914485  .00002454  00000+0  33194-3 0  9992
2 39440  97.7537 320.0649 0077077 194.4236 165.4776 14.77844365491336
NEE-02 KRYSAOR          
1 39441U 13066AB  23004.80139456  .00001726  00000+0  24368-3 0  9993
2 39441  97.7648 316.3123 0078827 212.4542 147.1808 14.76337046489736
FUNCUBE-1 (AO-73)       
1 39444U 13066AE  23005.47716760  .00004011  00000+0  46830-3 0  9997
2 39444  97.6509 335.7073 0056935  88.8270 271.9468 14.84518375492076
UWE-3                   
1 39446U 13066AG  23005.84024273  .00002516  00000+0  32312-3 0  9999
2 39446  97.7141 326.5624 0068230 148.1955 212.3406 14.80425469490988
AEROCUBE 5A             
1 39465U 13072D   23005.71491444  .00083331  00000+0  28561-2 0  9995
2 39465 120.4810 358.4352 0155590 129.9875 231.4972 15.18772618180082
BRITE-CA1 (TORONTO)     
1 40020U 14033L   23006.24199913  .00000911  00000+0  16107-3 0  9994
2 40020  97.8005 160.2403 0085841 337.6596  22.0879 14.67357325457500
DUCHIFAT-1              
1 40021U 14033M   23005.86360385  .00006030  00000+0  56191-3 0  9990
2 40021  98.0383 325.2252 0013291  91.2353 269.0389 14.94578079464915
NANOSATC-BR1            
1 40024U 14033Q   23005.83972303  .00004851  00000+0  46996-3 0  9990
2 40024  98.0096 317.4361 0012847  97.9904 262.2773 14.93142303464169
QB50P1                  
1 40025U 14033R   23006.26748603  .00005011  00000+0  50335-3 0  9994
2 40025  97.9817 310.5782 0013343 106.5792 253.6893 14.91671338464490
QB50P2                  
1 40032U 14033Y   23005.57041093  .00004536  00000+0  46387-3 0  9997
2 40032  97.9552 304.4379 0012784 106.7886 253.4735 14.91004717464249
PERSEUS-M2              
1 40037U 14033AD  23005.74427383  .00001484  00000+0  16922-3 0  9992
2 40037  97.9040 291.9052 0015150 130.1335 230.1211 14.87562962463699
PERSEUS-M1              
1 40039U 14033AF  23005.59092382  .00001603  00000+0  18413-3 0  9994
2 40039  97.8919 289.1163 0015004 129.8422 230.4117 14.87170403463049
POLYITAN-1              
1 40042U 14033AJ  23005.79488268  .00006006  00000+0  59756-3 0  9999
2 40042  97.9926 311.6050 0015457 100.9002 259.3956 14.91947340463806
TIGRISAT                
1 40043U 14033AK  23006.23593809  .00002488  00000+0  36287-3 0  9992
2 40043  97.6533 189.6446 0057746 218.2748 141.4358 14.75527210459823
